FLOCK 4G-36             
1 62675U 25009BU  26068.70726311  .00013573  00000+0  51122-3 0  9993
2 62675  97.4053 151.0513 0003474 324.2456  35.8550 15.27209548 63701
STARLINK-36269          
1 67472U 26008AD  26068.38788140  .00035481  00000+0  12919-2 0  9997
2 67472  43.0007 207.1226 0000987 223.7297 136.3477 15.27599674  9520
